ONEWEB-0687             
1 61595U 24188B   25222.57590815  .00000021  00000+0  20526-4 0  9993
2 61595  87.9023  67.7274 0001535 106.5122 253.6178 13.17648688 43282
ONEWEB-0688             
1 61596U 24188C   25222.52865617  .00000079  00000+0  16895-3 0  9990
2 61596  87.9022  67.7370 0002620 114.3994 245.7411 13.17648083 43055
ONEWEB-0689             
1 61597U 24188D   25222.51031390  .00000214  00000+0  56841-3 0  9999
2 61597  87.8762  82.9853 0001399  87.4889 272.6399 13.11420472 41861
ONEWEB-0690             
1 61598U 24188E   25221.91011270  .00000601  00000+0  16593-2 0  9997
2 61598  87.8806  83.0715 0002348  70.9660 289.1722 13.11415345 41944
ONEWEB-0691             
1 61599U 24188F   25221.90504343  .00000481  00000+0  13205-2 0  9998
2 61599  87.8711  83.0556 0002008  93.1218 267.0140 13.11416867 41963
ONEWEB-0692             
1 61600U 24188G   25221.54389493  .00000205  00000+0  54367-3 0  9997
2 61600  87.8789  83.2154 0001178  51.3447 308.7786 13.11415962 43623
ONEWEB-0693             
1 61601U 24188H   25221.55330965  .00000055  00000+0  10882-3 0  9996
2 61601  87.9027  67.9494 0002587  80.5428 279.5996 13.17649112 44849
ONEWEB-0695             
1 61602U 24188J   25222.51198592  .00000195  00000+0  51350-3 0  9992
2 61602  87.8791  83.0080 0001144  79.9433 280.1824 13.11421706 41995
